CCSDS_OMM_VERS = 2.0
CREATION_DATE  = 
ORIGINATOR     = 

OBJECT_NAME    = STARLINK-35912
OBJECT_ID      = 2025-283E
CENTER_NAME    = EARTH
REF_FRAME      = TEME
TIME_SYSTEM    = UTC
MEAN_ELEMENT_THEORY = SGP/SGP4

EPOCH          = 2025-12-20T14:00:03.000384
MEAN_MOTION    = 15.74170314
ECCENTRICITY   = .00010975
INCLINATION    = 53.1578
RA_OF_ASC_NODE = 34.4772
ARG_OF_PERICENTER = 71.0963
MEAN_ANOMALY   = 250.7575

EPHEMERIS_TYPE = 0
CLASSIFICATION_TYPE = U
NORAD_CAT_ID   = 66882
ELEMENT_SET_NO = 999
REV_AT_EPOCH   = 368
BSTAR          = .69607107E-4
MEAN_MOTION_DOT = .9568E-4
MEAN_MOTION_DDOT = 0

CCSDS_OMM_VERS = 2.0
CREATION_DATE  = 
ORIGINATOR     = 

OBJECT_NAME    = STARLINK-35947
OBJECT_ID      = 2025-283F
CENTER_NAME    = EARTH
REF_FRAME      = TEME
TIME_SYSTEM    = UTC
MEAN_ELEMENT_THEORY = SGP/SGP4

EPOCH          = 2025-12-20T14:00:03.000384
MEAN_MOTION    = 15.74152391
ECCENTRICITY   = .00011616
INCLINATION    = 53.1581
RA_OF_ASC_NODE = 34.4735
ARG_OF_PERICENTER = 72.1228
MEAN_ANOMALY   = 251.6428

EPHEMERIS_TYPE = 0
CLASSIFICATION_TYPE = U
NORAD_CAT_ID   = 66883
ELEMENT_SET_NO = 999
REV_AT_EPOCH   = 373
BSTAR          = .33891978E-3
MEAN_MOTION_DOT = .49218E-3
MEAN_MOTION_DDOT = 0

CCSDS_OMM_VERS = 2.0
CREATION_DATE  = 
ORIGINATOR     = 

OBJECT_NAME    = STARLINK-36057
OBJECT_ID      = 2025-283G
CENTER_NAME    = EARTH
REF_FRAME      = TEME
TIME_SYSTEM    = UTC
MEAN_ELEMENT_THEORY = SGP/SGP4

EPOCH          = 2025-12-20T14:00:03.000384
MEAN_MOTION    = 15.74175334
ECCENTRICITY   = .00010304
INCLINATION    = 53.1579
RA_OF_ASC_NODE = 34.4646
ARG_OF_PERICENTER = 65.6519
MEAN_ANOMALY   = 261.9451

EPHEMERIS_TYPE = 0
CLASSIFICATION_TYPE = U
NORAD_CAT_ID   = 66884
ELEMENT_SET_NO = 999
REV_AT_EPOCH   = 368
BSTAR          = .44532946E-4
MEAN_MOTION_DOT = .5894E-4
MEAN_MOTION_DDOT = 0

CCSDS_OMM_VERS = 2.0
CREATION_DATE  = 
ORIGINATOR     = 

OBJECT_NAME    = STARLINK-35954
OBJECT_ID      = 2025-283H
CENTER_NAME    = EARTH
REF_FRAME      = TEME
TIME_SYSTEM    = UTC
MEAN_ELEMENT_THEORY = SGP/SGP4

EPOCH          = 2025-12-20T14:00:03.000384
MEAN_MOTION    = 15.74159915
ECCENTRICITY   = .00007904
INCLINATION    = 53.1578
RA_OF_ASC_NODE = 34.4687
ARG_OF_PERICENTER = 77.4348
MEAN_ANOMALY   = 248.2449

EPHEMERIS_TYPE = 0
CLASSIFICATION_TYPE = U
NORAD_CAT_ID   = 66885
ELEMENT_SET_NO = 999
REV_AT_EPOCH   = 368
BSTAR          = .26226657E-3
MEAN_MOTION_DOT = .37905E-3
MEAN_MOTION_DDOT = 0

CCSDS_OMM_VERS = 2.0
CREATION_DATE  = 
ORIGINATOR     = 

OBJECT_NAME    = STARLINK-35900
OBJECT_ID      = 2025-283J
CENTER_NAME    = EARTH
REF_FRAME      = TEME
TIME_SYSTEM    = UTC
MEAN_ELEMENT_THEORY = SGP/SGP4

EPOCH          = 2025-12-20T14:00:03.000384
MEAN_MOTION    = 15.74161239
ECCENTRICITY   = .00009212
INCLINATION    = 53.1575
RA_OF_ASC_NODE = 34.4610
ARG_OF_PERICENTER = 84.8617
MEAN_ANOMALY   = 244.6605

EPHEMERIS_TYPE = 0
CLASSIFICATION_TYPE = U
NORAD_CAT_ID   = 66886
ELEMENT_SET_NO = 999
REV_AT_EPOCH   = 368
BSTAR          = .20089734E-3
MEAN_MOTION_DOT = .28858E-3
MEAN_MOTION_DDOT = 0

CCSDS_OMM_VERS = 2.0
CREATION_DATE  = 
ORIGINATOR     = 

OBJECT_NAME    = STARLINK-35925
OBJECT_ID      = 2025-283K
CENTER_NAME    = EARTH
REF_FRAME      = TEME
TIME_SYSTEM    = UTC
MEAN_ELEMENT_THEORY = SGP/SGP4

EPOCH          = 2025-12-20T14:00:03.000384
MEAN_MOTION    = 15.74195749
ECCENTRICITY   = .00006632
INCLINATION    = 53.1577
RA_OF_ASC_NODE = 34.4570
ARG_OF_PERICENTER = 51.8950
MEAN_ANOMALY   = 279.5240

EPHEMERIS_TYPE = 0
CLASSIFICATION_TYPE = U
NORAD_CAT_ID   = 66887
ELEMENT_SET_NO = 999
REV_AT_EPOCH   = 368
BSTAR          = -.12217808E-3
MEAN_MOTION_DOT = -.18487E-3
MEAN_MOTION_DDOT = 0

CCSDS_OMM_VERS = 2.0
CREATION_DATE  = 
ORIGINATOR     = 

OBJECT_NAME    = STARLINK-35919
OBJECT_ID      = 2025-283L
CENTER_NAME    = EARTH
REF_FRAME      = TEME
TIME_SYSTEM    = UTC
MEAN_ELEMENT_THEORY = SGP/SGP4

EPOCH          = 2025-12-20T14:00:03.000384
MEAN_MOTION    = 15.74178097
ECCENTRICITY   = .00010102
INCLINATION    = 53.1574
RA_OF_ASC_NODE = 34.4526
ARG_OF_PERICENTER = 73.2337
MEAN_ANOMALY   = 260.1131

EPHEMERIS_TYPE = 0
CLASSIFICATION_TYPE = U
NORAD_CAT_ID   = 66888
ELEMENT_SET_NO = 999
REV_AT_EPOCH   = 368
BSTAR          = .19993702E-4
MEAN_MOTION_DOT = .2299E-4
MEAN_MOTION_DDOT = 0

CCSDS_OMM_VERS = 2.0
CREATION_DATE  = 
ORIGINATOR     = 

OBJECT_NAME    = STARLINK-35852
OBJECT_ID      = 2025-283M
CENTER_NAME    = EARTH
REF_FRAME      = TEME
TIME_SYSTEM    = UTC
MEAN_ELEMENT_THEORY = SGP/SGP4

EPOCH          = 2025-12-20T14:00:03.000384
MEAN_MOTION    = 15.74163960
ECCENTRICITY   = .00008666
INCLINATION    = 53.1575
RA_OF_ASC_NODE = 34.4484
ARG_OF_PERICENTER = 65.5515
MEAN_ANOMALY   = 269.7151

EPHEMERIS_TYPE = 0
CLASSIFICATION_TYPE = U
NORAD_CAT_ID   = 66889
ELEMENT_SET_NO = 999
REV_AT_EPOCH   = 368
BSTAR          = .23100094E-3
MEAN_MOTION_DOT = .33298E-3
MEAN_MOTION_DDOT = 0

CCSDS_OMM_VERS = 2.0
CREATION_DATE  = 
ORIGINATOR     = 

OBJECT_NAME    = STARLINK-35885
OBJECT_ID      = 2025-283N
CENTER_NAME    = EARTH
REF_FRAME      = TEME
TIME_SYSTEM    = UTC
MEAN_ELEMENT_THEORY = SGP/SGP4

EPOCH          = 2025-12-20T14:00:03.000384
MEAN_MOTION    = 15.74175934
ECCENTRICITY   = .0001134
INCLINATION    = 53.1576
RA_OF_ASC_NODE = 34.4446
ARG_OF_PERICENTER = 72.3734
MEAN_ANOMALY   = 264.8122

EPHEMERIS_TYPE = 0
CLASSIFICATION_TYPE = U
NORAD_CAT_ID   = 66890
ELEMENT_SET_NO = 999
REV_AT_EPOCH   = 368
BSTAR          = .2697424E-4
MEAN_MOTION_DOT = .3321E-4
MEAN_MOTION_DDOT = 0

CCSDS_OMM_VERS = 2.0
CREATION_DATE  = 
ORIGINATOR     = 

OBJECT_NAME    = STARLINK-35855
OBJECT_ID      = 2025-283P
CENTER_NAME    = EARTH
REF_FRAME      = TEME
TIME_SYSTEM    = UTC
MEAN_ELEMENT_THEORY = SGP/SGP4

EPOCH          = 2025-12-20T14:00:03.000384
MEAN_MOTION    = 15.74185118
ECCENTRICITY   = .00013667
INCLINATION    = 53.1575
RA_OF_ASC_NODE = 34.4404
ARG_OF_PERICENTER = 78.4567
MEAN_ANOMALY   = 260.6384

EPHEMERIS_TYPE = 0
CLASSIFICATION_TYPE = U
NORAD_CAT_ID   = 66891
ELEMENT_SET_NO = 999
REV_AT_EPOCH   = 368
BSTAR          = -.56782782E-4
MEAN_MOTION_DOT = -.8935E-4
MEAN_MOTION_DDOT = 0

CCSDS_OMM_VERS = 2.0
CREATION_DATE  = 
ORIGINATOR     = 

OBJECT_NAME    = STARLINK-35883
OBJECT_ID      = 2025-283Q
CENTER_NAME    = EARTH
REF_FRAME      = TEME
TIME_SYSTEM    = UTC
MEAN_ELEMENT_THEORY = SGP/SGP4

EPOCH          = 2025-12-20T14:00:03.000384
MEAN_MOTION    = 15.74139846
ECCENTRICITY   = .00013702
INCLINATION    = 53.1638
RA_OF_ASC_NODE = 34.4360
ARG_OF_PERICENTER = 62.0702
MEAN_ANOMALY   = 278.9583

EPHEMERIS_TYPE = 0
CLASSIFICATION_TYPE = U
NORAD_CAT_ID   = 66892
ELEMENT_SET_NO = 999
REV_AT_EPOCH   = 362
BSTAR          = .43448905E-3
MEAN_MOTION_DOT = .63347E-3
MEAN_MOTION_DDOT = 0

CCSDS_OMM_VERS = 2.0
CREATION_DATE  = 
ORIGINATOR     = 

OBJECT_NAME    = STARLINK-36033
OBJECT_ID      = 2025-283R
CENTER_NAME    = EARTH
REF_FRAME      = TEME
TIME_SYSTEM    = UTC
MEAN_ELEMENT_THEORY = SGP/SGP4

EPOCH          = 2025-12-20T14:00:03.000384
MEAN_MOTION    = 15.74166972
ECCENTRICITY   = .00010176
INCLINATION    = 53.1574
RA_OF_ASC_NODE = 34.4321
ARG_OF_PERICENTER = 72.3655
MEAN_ANOMALY   = 270.5654

EPHEMERIS_TYPE = 0
CLASSIFICATION_TYPE = U
NORAD_CAT_ID   = 66893
ELEMENT_SET_NO = 999
REV_AT_EPOCH   = 368
BSTAR          = .17589254E-3
MEAN_MOTION_DOT = .25183E-3
MEAN_MOTION_DDOT = 0

CCSDS_OMM_VERS = 2.0
CREATION_DATE  = 
ORIGINATOR     = 

OBJECT_NAME    = STARLINK-35718
OBJECT_ID      = 2025-283S
CENTER_NAME    = EARTH
REF_FRAME      = TEME
TIME_SYSTEM    = UTC
MEAN_ELEMENT_THEORY = SGP/SGP4

EPOCH          = 2025-12-20T14:00:03.000384
MEAN_MOTION    = 15.74106887
ECCENTRICITY   = .00011873
INCLINATION    = 53.1639
RA_OF_ASC_NODE = 34.4285
ARG_OF_PERICENTER = 71.1272
MEAN_ANOMALY   = 273.7497

EPHEMERIS_TYPE = 0
CLASSIFICATION_TYPE = U
NORAD_CAT_ID   = 66894
ELEMENT_SET_NO = 999
REV_AT_EPOCH   = 368
BSTAR          = .71523485E-3
MEAN_MOTION_DOT = .105058E-2
MEAN_MOTION_DDOT = 0

CCSDS_OMM_VERS = 2.0
CREATION_DATE  = 
ORIGINATOR     = 

OBJECT_NAME    = STARLINK-35971
OBJECT_ID      = 2025-283T
CENTER_NAME    = EARTH
REF_FRAME      = TEME
TIME_SYSTEM    = UTC
MEAN_ELEMENT_THEORY = SGP/SGP4

EPOCH          = 2025-12-20T14:00:03.000384
MEAN_MOTION    = 15.74168637
ECCENTRICITY   = .0001345
INCLINATION    = 53.1576
RA_OF_ASC_NODE = 34.4192
ARG_OF_PERICENTER = 79.1492
MEAN_ANOMALY   = 269.5485

EPHEMERIS_TYPE = 0
CLASSIFICATION_TYPE = U
NORAD_CAT_ID   = 66895
ELEMENT_SET_NO = 999
REV_AT_EPOCH   = 368
BSTAR          = .10791426E-4
MEAN_MOTION_DOT = .95E-5
MEAN_MOTION_DDOT = 0

CCSDS_OMM_VERS = 2.0
CREATION_DATE  = 
ORIGINATOR     = 

OBJECT_NAME    = STARLINK-35791
OBJECT_ID      = 2025-283U
CENTER_NAME    = EARTH
REF_FRAME      = TEME
TIME_SYSTEM    = UTC
MEAN_ELEMENT_THEORY = SGP/SGP4

EPOCH          = 2025-12-20T14:00:03.000384
MEAN_MOTION    = 15.74166354
ECCENTRICITY   = .00012189
INCLINATION    = 53.1574
RA_OF_ASC_NODE = 34.4236
ARG_OF_PERICENTER = 81.3830
MEAN_ANOMALY   = 265.3980

EPHEMERIS_TYPE = 0
CLASSIFICATION_TYPE = U
NORAD_CAT_ID   = 66896
ELEMENT_SET_NO = 999
REV_AT_EPOCH   = 368
BSTAR          = .24057198E-4
MEAN_MOTION_DOT = .2892E-4
MEAN_MOTION_DDOT = 0

